NORAD_CAT_ID,OBJECT_NAME,OBJECT_TYPE,EPOCH,MEAN_MOTION,ECCENTRICITY,INCLINATION,RA_OF_ASC_NODE,ARG_OF_PERICENTER,MEAN_ANOMALY,BSTAR,MEAN_MOTION_DOT,MEAN_MOTION_DDOT,TLE_LINE0,TLE_LINE1,TLE_LINE2,SEMIMAJOR_AXIS,PERIOD,APOGEE,PERIGEE,DECAYED
51721.0,STARLINK-3524,PAYLOAD,2022-04-10 20:00:01,15.33601356,0.0001617,53.2175,264.7816,53.3213,138.4431,-0.023519,-0.00715513,0.0,0 STARLINK-3524,1 51721U 22016H   22100.83334491 -.00715513  00000-0 -23519-1 0  9992,2 51721  53.2175 264.7816 0001617  53.3213 138.4431 15.33601356  8822,6843.215,93.897,466.187,463.973,0.0
51721.0,STARLINK-3524,PAYLOAD,2022-04-10 22:00:00,15.33472526,0.0001439,53.2174,264.3937,54.82100000000001,237.2604,-0.023518,-0.00712754,0.0,0 STARLINK-3524,1 51721U 22016H   22100.91667824 -.00712754  00000-0 -23518-1 0  9993,2 51721  53.2174 264.3937 0001439  54.8210 237.2604 15.33472526  3679,6843.598000000001,93.905,466.448,464.478,0.0
51721.0,STARLINK-3524,PAYLOAD,2022-04-11 14:00:01,15.32456235,0.0001511,53.2176,261.29200000000003,43.8606,329.3745,-0.024532,-0.00719389,0.0,0 STARLINK-3524,1 51721U 22016H   22101.58334491 -.00719389  00000-0 -24532-1 0  9996,2 51721  53.2176 261.2920 0001511  43.8606 329.3745 15.32456235  3685,6846.624,93.967,469.523,467.454,0.0
51721.0,STARLINK-3524,PAYLOAD,2022-04-11 20:00:01,15.3207234,0.0001386999999999,53.2176,260.1317,57.1143,255.9214,-0.024733,-0.0071674999999999,0.0,0 STARLINK-3524,1 51721U 22016H   22101.83334491 -.00716750  00000-0 -24733-1 0  9996,2 51721  53.2176 260.1317 0001387  57.1143 255.9214 15.32072340  8971,6847.767,93.99,470.582,468.6830000000001,0.0
51721.0,STARLINK-3524,PAYLOAD,2022-04-11 22:00:00,15.31943538,0.0001383,53.2173,259.7448,49.6537,3.2394,-0.024744,-0.00714359,0.0,0 STARLINK-3524,1 51721U 22016H   22101.91667824 -.00714359  00000-0 -24744-1 0  9999,2 51721  53.2173 259.7448 0001383  49.6537   3.2394 15.31943538  3687,6848.151,93.998,470.963,469.069,0.0
51721.0,STARLINK-3524,PAYLOAD,2022-04-12 14:00:01,15.30924967,0.0001805,53.2174,256.6503,39.1414,91.2295,-0.025662,-0.00717368,0.0,0 STARLINK-3524,1 51721U 22016H   22102.58334491 -.00717368  00000-0 -25662-1 0  9997,2 51721  53.2174 256.6503 0001805  39.1414  91.2295 15.30924967  3684,6851.188,94.061,474.29,471.817,0.0
51721.0,STARLINK-3524,PAYLOAD,2022-04-12 20:00:01,15.30541217,0.0001514,53.2175,255.4927,46.4975,22.2953,-0.025898,-0.0071545,0.0,0 STARLINK-3524,1 51721U 22016H   22102.83334491 -.00715450  00000-0 -25898-1 0  9996,2 51721  53.2175 255.4927 0001514  46.4975  22.2953 15.30541217  9136,6852.333000000001,94.084,475.236,473.161,0.0
51721.0,STARLINK-3524,PAYLOAD,2022-04-12 22:00:00,15.30412886,0.0001626999999999,53.2173,255.1064,48.2668,119.9236,-0.025911,-0.00713153,0.0,0 STARLINK-3524,1 51721U 22016H   22102.91667824 -.00713153  00000-0 -25911-1 0  9998,2 51721  53.2173 255.1064 0001627  48.2668 119.9236 15.30412886  3666,6852.717,94.092,475.696,473.467,0.0
51721.0,STARLINK-3524,PAYLOAD,2022-04-13 14:00:03,15.29393818,0.0001894,53.2175,252.0194,39.2355,202.8833,-0.026811,-0.00714817,0.0,0 STARLINK-3524,1 51721U 22016H   22103.58336806 -.00714817  00000-0 -26811-1 0  9993,2 51721  53.2175 252.0194 0001894  39.2355 202.8833 15.29393818  3674,6855.76,94.155,478.924,476.327,0.0
51721.0,STARLINK-3524,PAYLOAD,2022-04-13 22:00:00,15.28884946,0.0001537,53.2172,250.4789,51.0936,226.8779,-0.027286,-0.0071597,0.0,0 STARLINK-3524,1 51721U 22016H   22103.91667824 -.00715970  00000-0 -27286-1 0  9995,2 51721  53.2172 250.4789 0001537  51.0936 226.8779 15.28884946  9299,6857.281,94.186,480.2,478.092,0.0
51721.0,STARLINK-3524,PAYLOAD,2022-04-14 14:00:01,15.27865458,0.0001807,53.2175,247.3993,35.3389,312.757,-0.028204,-0.00725451,0.0,0 STARLINK-3524,1 51721U 22016H   22104.58334491 -.00725451  00000-0 -28204-1 0  9996,2 51721  53.2175 247.3993 0001807  35.3389 312.7570 15.27865458  3666,6860.331,94.249,483.436,480.957,0.0
51721.0,STARLINK-3524,PAYLOAD,2022-04-14 22:00:00,15.27355243,0.0001486999999999,53.2173,245.8623,44.2905,337.9476,-0.028602,-0.00724321,0.0,0 STARLINK-3524,1 51721U 22016H   22104.91667824 -.00724321  00000-0 -28602-1 0  9999,2 51721  53.2173 245.8623 0001487  44.2905 337.9476 15.27355243  9446,6861.859,94.281,484.745,482.704,0.0
51721.0,STARLINK-3524,PAYLOAD,2022-04-15 13:37:25,15.27625217,0.000145,53.2188,242.8438,77.7995,282.3168,-0.0081015,-0.00215727,0.0,0 STARLINK-3524,1 51721U 22016H   22105.56765271 -.00215727  00000-0 -81015-2 0  9999,2 51721  53.2188 242.8438 0001450  77.7995 282.3168 15.27625217  8422,6861.051,94.264,483.911,481.921,0.0
51721.0,STARLINK-3524,PAYLOAD,2022-04-15 22:00:00,15.25824265,0.0001695,53.2172,241.2564,42.4308,78.5596,-0.029897,-0.00722781,0.0,0 STARLINK-3524,1 51721U 22016H   22105.91667824 -.00722781  00000-0 -29897-1 0  9995,2 51721  53.2172 241.2564 0001695  42.4308  78.5596 15.25824265  9609,6866.448,94.375,489.477,487.15,0.0
51721.0,STARLINK-3524,PAYLOAD,2022-04-16 14:00:01,15.24803238,0.0002001,53.2174,238.1916,37.8383,145.9234,-0.030793,-0.00721935,0.0,0 STARLINK-3524,1 51721U 22016H   22106.58334491 -.00721935  00000-0 -30793-1 0  9997,2 51721  53.2174 238.1916 0002001  37.8383 145.9234 15.24803238  3664,6869.513000000001,94.438,492.753,490.004,0.0
51721.0,STARLINK-3524,PAYLOAD,2022-04-16 22:00:01,15.2429573,0.0001652,53.2172,236.6612,49.379,164.9112,-0.031441,-0.00725655,0.0,0 STARLINK-3524,1 51721U 22016H   22106.91668981 -.00725655  00000-0 -31441-1 0  9992,2 51721  53.2172 236.6612 0001652  49.3790 164.9112 15.24295730  9753,6871.038000000001,94.47,494.038,491.768,0.0
51721.0,STARLINK-3524,PAYLOAD,2022-04-17 14:00:01,15.23273475,0.0001911,53.2175,233.6039,38.3735,234.9478,-0.032233,-0.00721823,0.0,0 STARLINK-3524,1 51721U 22016H   22107.58334491 -.00721823  00000-0 -32233-1 0  9995,2 51721  53.2175 233.6039 0001911  38.3735 234.9478 15.23273475  3669,6874.111999999999,94.533,497.29,494.663,0.0
51721.0,STARLINK-3524,PAYLOAD,2022-04-17 22:00:00,15.22767145,0.0001619,53.2173,232.0769,45.1144,256.8333,-0.033023,-0.00727964,0.0,0 STARLINK-3524,1 51721U 22016H   22107.91667824 -.00727964  00000-0 -33023-1 0  9991,2 51721  53.2173 232.0769 0001619  45.1144 256.8333 15.22767145  3658,6875.635,94.565,498.614,496.387,0.0
51721.0,STARLINK-3524,PAYLOAD,2022-04-18 08:00:01,15.22126345,0.0001819,53.2176,230.1686,35.9447,30.9277,-0.033342,-0.00721619,0.0,0 STARLINK-3524,1 51721U 22016H   22108.33334491 -.00721619  00000-0 -33342-1 0  9994,2 51721  53.2176 230.1686 0001819  35.9447  30.9277 15.22126345  9973,6877.565,94.604,500.681,498.179,0.0
51721.0,STARLINK-3524,PAYLOAD,2022-04-18 14:00:01,15.21745244,0.0001955,53.2175,229.0269,32.2185,325.1468,-0.033863,-0.00724485,0.0,0 STARLINK-3524,1 51721U 22016H   22108.58334491 -.00724485  00000-0 -33863-1 0  9993,2 51721  53.2175 229.0269 0001955  32.2185 325.1468 15.21745244  3650,6878.7130000000025,94.628,501.923,499.233,0.0
51721.0,STARLINK-3524,PAYLOAD,2022-04-18 22:00:00,15.21236178,0.0001696999999999,53.2174,227.5034,37.4372,346.7172,-0.034453,-0.00725971,0.0,0 STARLINK-3524,1 51721U 22016H   22108.91667824 -.00725971  00000-0 -34453-1 0  9996,2 51721  53.2174 227.5034 0001697  37.4372 346.7172 15.21236178  3652,6880.248000000001,94.66,503.28,500.945,0.0
51721.0,STARLINK-3524,PAYLOAD,2022-04-19 14:00:01,15.20215889,0.0002075,53.2175,224.4608,30.4882,45.4064,-0.035478,-0.00725556,0.0,0 STARLINK-3524,1 51721U 22016H   22109.58334491 -.00725556  00000-0 -35478-1 0  9998,2 51721  53.2175 224.4608 0002075  30.4882  45.4064 15.20215889 10168,6883.326,94.723,506.619,503.763,0.0
51721.0,STARLINK-3524,PAYLOAD,2022-04-20 14:00:01,15.186848800000002,0.0002343,53.2174,219.9053,28.3367,120.5728,-0.036999,-0.00723761,0.0,0 STARLINK-3524,1 51721U 22016H   22110.58334491 -.00723761  00000-0 -36999-1 0  9995,2 51721  53.2174 219.9053 0002343  28.3367 120.5728 15.18684880  3658,6887.951,94.819,511.43,508.202,0.0
51721.0,STARLINK-3524,PAYLOAD,2022-04-20 22:00:00,15.18174669,0.0001718,53.2173,218.3885,46.6525,125.3701,-0.037507,-0.007229,0.0,0 STARLINK-3524,1 51721U 22016H   22110.91667824 -.00722900  00000-0 -37507-1 0  9991,2 51721  53.2173 218.3885 0001718  46.6525 125.3701 15.18174669 10366,6889.494000000002,94.851,512.543,510.176,0.0
51721.0,STARLINK-3524,PAYLOAD,2022-04-21 14:00:01,15.17153881,0.0001985,53.2174,215.3603,40.345,176.0643,-0.038564,-0.00721787,0.0,0 STARLINK-3524,1 51721U 22016H   22111.58334491 -.00721787  00000-0 -38564-1 0  9992,2 51721  53.2174 215.3603 0001985  40.3450 176.0643 15.17153881  3650,6892.584,94.915,515.817,513.081,0.0
51721.0,STARLINK-3524,PAYLOAD,2022-04-21 22:00:00,15.16645476,0.0001616,53.2174,213.8471,53.3383,184.3451,-0.039282,-0.00724323,0.0,0 STARLINK-3524,1 51721U 22016H   22111.91667824 -.00724323  00000-0 -39282-1 0  9995,2 51721  53.2174 213.8471 0001616  53.3383 184.3451 15.16645476  3638,6894.125,94.946,517.104,514.875,0.0
51721.0,STARLINK-3524,PAYLOAD,2022-04-22 14:00:01,15.15624346,0.0002002,53.2175,210.8262,36.5253,241.868,-0.040319,-0.00722215,0.0,0 STARLINK-3524,1 51721U 22016H   22112.58334491 -.00722215  00000-0 -40319-1 0  9991,2 51721  53.2175 210.8262 0002002  36.5253 241.8680 15.15624346  3650,6897.221,95.01,520.467,517.705,0.0
51721.0,STARLINK-3524,PAYLOAD,2022-04-23 06:00:02,15.14603463,0.0001702,53.2175,207.8074,43.6767,273.04,-0.041371,-0.00719952,0.0,0 STARLINK-3524,1 51721U 22016H   22113.25002315 -.00719952  00000-0 -41371-1 0  9996,2 51721  53.2175 207.8074 0001702  43.6767 273.0400 15.14603463 10710,6900.32,95.074,523.359,521.01,0.0
51721.0,STARLINK-3524,PAYLOAD,2022-04-23 14:00:01,15.13989267,0.0001932,53.2174,206.301,46.4333,288.4943,-0.034193,-0.00586546,0.0,0 STARLINK-3524,1 51721U 22016H   22113.58334491 -.00586546  00000-0 -34193-1 0  9990,2 51721  53.2174 206.3010 0001932  46.4333 288.4943 15.13989267  3608,6902.186,95.113,525.384,522.717,0.0
